start=new Date('2022-10-18T00:00:00.000Z').valueOf();
sats=[{"LAUNCH_DATE":"2022-08-12","MEAN_ELEMENT_THEORY":"SGP4","RCS_SIZE":"LARGE","MEAN_MOTION":"15.01302859","APOAPSIS":"564.886","PERIOD":"95.917","TLE_LINE2":"2 53497  97.6572  50.4664 0002890  32.5921 183.5020 15.01302859  1309","GP_ID":"215451343","MEAN_ANOMALY":"183.5020","REF_FRAME":"TEME","OBJECT_ID":"2022-099AJ","PERIAPSIS":"560.874","MEAN_MOTION_DDOT":"0.0000000000000","NORAD_CAT_ID":"53497","COUNTRY_CODE":"US","TLE_LINE1":"1 53497U 22099AJ  22290.91667824 -.00075301  00000-0 -59135-2 0  9991","BSTAR":"-0.00591350000000","ARG_OF_PERICENTER":"32.5921","INCLINATION":"97.6572","EPOCH":"2022-10-17T22:00:00.999936","ELEMENT_SET_NO":"999","ECCENTRICITY":"0.00028900","SEMIMAJOR_AXIS":"6941.015","RA_OF_ASC_NODE":"50.4664","DECAY_DATE":null,"EPHEMERIS_TYPE":"0","FILE":"3620294","CENTER_NAME":"EARTH","TIME_SYSTEM":"UTC","MEAN_MOTION_DOT":"-0.00075301","SITE":"AFWTR","OBJECT_NAME":"STARLINK-4453","REV_AT_EPOCH":"130","OBJECT_TYPE":"PAYLOAD","CLASSIFICATION_TYPE":"U"},{"PERIOD":"95.916","APOAPSIS":"564.773","MEAN_MOTION":"15.01317144","RCS_SIZE":"LARGE","MEAN_ELEMENT_THEORY":"SGP4","LAUNCH_DATE":"2022-08-12","NORAD_CAT_ID":"53498","MEAN_MOTION_DDOT":"0.0000000000000","PERIAPSIS":"560.898","OBJECT_ID":"2022-099AK","REF_FRAME":"TEME","MEAN_ANOMALY":"159.3056","GP_ID":"215452338","TLE_LINE2":"2 53498  97.6564  50.4651 0002791  26.7167 159.3056 15.01317144  1307","MEAN_MOTION_DOT":"-0.00074601","SITE":"AFWTR","FILE":"3620294","CENTER_NAME":"EARTH","TIME_SYSTEM":"UTC","EPHEMERIS_TYPE":"0","DECAY_DATE":null,"RA_OF_ASC_NODE":"50.4651","SEMIMAJOR_AXIS":"6940.971","EPOCH":"2022-10-17T22:00:00.999936","ECCENTRICITY":"0.00027910","INCLINATION":"97.6564","ELEMENT_SET_NO":"999","ARG_OF_PERICENTER":"26.7167","BSTAR":"-0.00585580000000","TLE_LINE1":"1 53498U 22099AK  22290.91667824 -.00074601  00000-0 -58558-2 0  9992","COUNTRY_CODE":"US","CLASSIFICATION_TYPE":"U","OBJECT_TYPE":"PAYLOAD","REV_AT_EPOCH":"130","OBJECT_NAME":"STARLINK-4439"},{"CLASSIFICATION_TYPE":"U","OBJECT_TYPE":"PAYLOAD","REV_AT_EPOCH":"130","OBJECT_NAME":"STARLINK-4454","MEAN_MOTION_DOT":"-0.00078011","SITE":"AFWTR","FILE":"3620294","TIME_SYSTEM":"UTC","CENTER_NAME":"EARTH","EPHEMERIS_TYPE":"0","DECAY_DATE":null,"SEMIMAJOR_AXIS":"6940.937","RA_OF_ASC_NODE":"50.4666","ARG_OF_PERICENTER":"36.2128","ELEMENT_SET_NO":"999","ECCENTRICITY":"0.00025460","EPOCH":"2022-10-17T22:00:00.999936","INCLINATION":"97.6567","COUNTRY_CODE":"US","TLE_LINE1":"1 53499U 22099AL  22290.91667824 -.00078011  00000-0 -61249-2 0  9993","BSTAR":"-0.00612490000000","NORAD_CAT_ID":"53499","MEAN_MOTION_DDOT":"0.0000000000000","PERIAPSIS":"561.035","REF_FRAME":"TEME","OBJECT_ID":"2022-099AL","MEAN_ANOMALY":"188.4413","TLE_LINE2":"2 53499  97.6567  50.4666 0002546  36.2128 188.4413 15.01328133  1308","GP_ID":"215451509","PERIOD":"95.915","MEAN_MOTION":"15.01328133","APOAPSIS":"564.569","MEAN_ELEMENT_THEORY":"SGP4","RCS_SIZE":"LARGE","LAUNCH_DATE":"2022-08-12"},{"SEMIMAJOR_AXIS":"6940.967","RA_OF_ASC_NODE":"50.4659","DECAY_DATE":null,"FILE":"3620294","TIME_SYSTEM":"UTC","EPHEMERIS_TYPE":"0","CENTER_NAME":"EARTH","MEAN_MOTION_DOT":"-0.00073598","SITE":"AFWTR","COUNTRY_CODE":"US","TLE_LINE1":"1 53500U 22099AM  22290.91667824 -.00073598  00000-0 -57759-2 0  9992","BSTAR":"-0.00577590000000","ARG_OF_PERICENTER":"29.8071","ECCENTRICITY":"0.00029780","EPOCH":"2022-10-17T22:00:00.999936","INCLINATION":"97.6570","ELEMENT_SET_NO":"999","OBJECT_TYPE":"PAYLOAD","CLASSIFICATION_TYPE":"U","OBJECT_NAME":"STARLINK-4455","REV_AT_EPOCH":"130","MEAN_MOTION":"15.01318444","APOAPSIS":"564.899","PERIOD":"95.916","LAUNCH_DATE":"2022-08-12","MEAN_ELEMENT_THEORY":"SGP4","RCS_SIZE":"LARGE","PERIAPSIS":"560.765","MEAN_MOTION_DDOT":"0.0000000000000","NORAD_CAT_ID":"53500","TLE_LINE2":"2 53500  97.6570  50.4659 0002978  29.8071 176.2360 15.01318444  1301","GP_ID":"215452246","MEAN_ANOMALY":"176.2360","REF_FRAME":"TEME","OBJECT_ID":"2022-099AM"},{"GP_ID":"215424625","TLE_LINE2":"2 53501  97.6559  50.5476 0002595  41.8312 294.3486 15.01300830 10383","MEAN_ANOMALY":"294.3486","OBJECT_ID":"2022-099AN","REF_FRAME":"TEME","PERIAPSIS":"561.085","NORAD_CAT_ID":"53501","MEAN_MOTION_DDOT":"0.0000000000000","LAUNCH_DATE":"2022-08-12","RCS_SIZE":"LARGE","MEAN_ELEMENT_THEORY":"SGP4","APOAPSIS":"564.687","MEAN_MOTION":"15.01300830","PERIOD":"95.917","OBJECT_NAME":"STARLINK-4434","REV_AT_EPOCH":"1038","OBJECT_TYPE":"PAYLOAD","CLASSIFICATION_TYPE":"U","BSTAR":"-0.00638430000000","COUNTRY_CODE":"US","TLE_LINE1":"1 53501U 22099AN  22291.00001157 -.00081217  00000-0 -63843-2 0  9993","ELEMENT_SET_NO":"999","ECCENTRICITY":"0.00025950","EPOCH":"2022-10-18T00:00:00.999648","INCLINATION":"97.6559","ARG_OF_PERICENTER":"41.8312","RA_OF_ASC_NODE":"50.5476","SEMIMAJOR_AXIS":"6941.021","DECAY_DATE":null,"TIME_SYSTEM":"UTC","FILE":"3620174","CENTER_NAME":"EARTH","EPHEMERIS_TYPE":"0","MEAN_MOTION_DOT":"-0.00081217","SITE":"AFWTR"},{"MEAN_ANOMALY":"188.3438","GP_ID":"215452094","TLE_LINE2":"2 53502  97.6567  50.4663 0002360  37.6614 188.3438 15.01321903  1303","OBJECT_ID":"2022-099AP","REF_FRAME":"TEME","PERIAPSIS":"561.183","MEAN_MOTION_DDOT":"0.0000000000000","NORAD_CAT_ID":"53502","LAUNCH_DATE":"2022-08-12","RCS_SIZE":"LARGE","MEAN_ELEMENT_THEORY":"SGP4","APOAPSIS":"564.459","MEAN_MOTION":"15.01321903","PERIOD":"95.915","OBJECT_NAME":"STARLINK-4435","REV_AT_EPOCH":"130","OBJECT_TYPE":"PAYLOAD","CLASSIFICATION_TYPE":"U","BSTAR":"-0.00629520000000","COUNTRY_CODE":"US","TLE_LINE1":"1 53502U 22099AP  22290.91667824 -.00080140  00000-0 -62952-2 0  9996","INCLINATION":"97.6567","ECCENTRICITY":"0.00023600","ELEMENT_SET_NO":"999","EPOCH":"2022-10-17T22:00:00.999936","ARG_OF_PERICENTER":"37.6614","DECAY_DATE":null,"RA_OF_ASC_NODE":"50.4663","SEMIMAJOR_AXIS":"6940.956","MEAN_MOTION_DOT":"-0.00080140","SITE":"AFWTR","FILE":"3620294","EPHEMERIS_TYPE":"0","CENTER_NAME":"EARTH","TIME_SYSTEM":"UTC"},{"OBJECT_TYPE":"PAYLOAD","CLASSIFICATION_TYPE":"U","OBJECT_NAME":"STARLINK-4461","REV_AT_EPOCH":"130","DECAY_DATE":null,"RA_OF_ASC_NODE":"50.4649","SEMIMAJOR_AXIS":"6940.978","MEAN_MOTION_DOT":"-0.00074053","SITE":"AFWTR","EPHEMERIS_TYPE":"0","FILE":"3620294","CENTER_NAME":"EARTH","TIME_SYSTEM":"UTC","BSTAR":"-0.00581280000000","COUNTRY_CODE":"US","TLE_LINE1":"1 53503U 22099AQ  22290.91667824 -.00074053  00000-0 -58128-2 0  9993","ECCENTRICITY":"0.00023850","INCLINATION":"97.6561","EPOCH":"2022-10-17T22:00:00.999936","ELEMENT_SET_NO":"999","ARG_OF_PERICENTER":"47.6919","PERIAPSIS":"561.188","MEAN_MOTION_DDOT":"0.0000000000000","NORAD_CAT_ID":"53503","MEAN_ANOMALY":"208.3838","GP_ID":"215451928","TLE_LINE2":"2 53503  97.6561  50.4649 0002385  47.6919 208.3838 15.01314659  1305","OBJECT_ID":"2022-099AQ","REF_FRAME":"TEME","APOAPSIS":"564.499","MEAN_MOTION":"15.01314659","PERIOD":"95.916","LAUNCH_DATE":"2022-08-12","RCS_SIZE":"LARGE","MEAN_ELEMENT_THEORY":"SGP4"},{"COUNTRY_CODE":"US","TLE_LINE1":"1 53504U 22099AR  22291.00001157 -.00031213  00000-0 -24344-2 0  9990","BSTAR":"-0.00243440000000","ARG_OF_PERICENTER":"36.9609","ECCENTRICITY":"0.00025490","INCLINATION":"97.6563","EPOCH":"2022-10-18T00:00:00.999648","ELEMENT_SET_NO":"999","DECAY_DATE":null,"SEMIMAJOR_AXIS":"6941.064","RA_OF_ASC_NODE":"50.5475","MEAN_MOTION_DOT":"-0.00031213","SITE":"AFWTR","FILE":"3620174","CENTER_NAME":"EARTH","TIME_SYSTEM":"UTC","EPHEMERIS_TYPE":"0","OBJECT_NAME":"STARLINK-4448","REV_AT_EPOCH":"1038","OBJECT_TYPE":"PAYLOAD","CLASSIFICATION_TYPE":"U","LAUNCH_DATE":"2022-08-12","MEAN_ELEMENT_THEORY":"SGP4","RCS_SIZE":"LARGE","MEAN_MOTION":"15.01286751","APOAPSIS":"564.699","PERIOD":"95.918","MEAN_ANOMALY":"289.1939","TLE_LINE2":"2 53504  97.6563  50.5475 0002549  36.9609 289.1939 15.01286751 10383","GP_ID":"215424618","REF_FRAME":"TEME","OBJECT_ID":"2022-099AR","PERIAPSIS":"561.160","NORAD_CAT_ID":"53504","MEAN_MOTION_DDOT":"0.0000000000000"},{"BSTAR":"-0.00545200000000","TLE_LINE1":"1 53505U 22099AS  22290.91667824 -.00069518  00000-0 -54520-2 0  9997","COUNTRY_CODE":"US","ECCENTRICITY":"0.00020380","INCLINATION":"97.6557","EPOCH":"2022-10-17T22:00:00.999936","ELEMENT_SET_NO":"999","ARG_OF_PERICENTER":"51.1498","RA_OF_ASC_NODE":"50.4641","SEMIMAJOR_AXIS":"6940.953","DECAY_DATE":null,"FILE":"3620294","TIME_SYSTEM":"UTC","EPHEMERIS_TYPE":"0","CENTER_NAME":"EARTH","MEAN_MOTION_DOT":"-0.00069518","SITE":"AFWTR","OBJECT_NAME":"STARLINK-4446","REV_AT_EPOCH":"130","OBJECT_TYPE":"PAYLOAD","CLASSIFICATION_TYPE":"U","LAUNCH_DATE":"2022-08-12","RCS_SIZE":"MEDIUM","MEAN_ELEMENT_THEORY":"SGP4","APOAPSIS":"564.232","MEAN_MOTION":"15.01323051","PERIOD":"95.915","GP_ID":"215451344","TLE_LINE2":"2 53505  97.6557  50.4641 0002038  51.1498 224.8538 15.01323051  1307","MEAN_ANOMALY":"224.8538","OBJECT_ID":"2022-099AS","REF_FRAME":"TEME","PERIAPSIS":"561.403","MEAN_MOTION_DDOT":"0.0000000000000","NORAD_CAT_ID":"53505"},{"PERIOD":"95.916","MEAN_MOTION":"15.01316075","APOAPSIS":"564.333","MEAN_ELEMENT_THEORY":"SGP4","RCS_SIZE":"LARGE","LAUNCH_DATE":"2022-08-12","MEAN_MOTION_DDOT":"0.0000000000000","NORAD_CAT_ID":"53506","PERIAPSIS":"561.345","REF_FRAME":"TEME","OBJECT_ID":"2022-099AT","TLE_LINE2":"2 53506  97.6554  50.4669 0002153  42.4406 222.2839 15.01316075  1309","GP_ID":"215452339","MEAN_ANOMALY":"222.2839","CENTER_NAME":"EARTH","FILE":"3620294","TIME_SYSTEM":"UTC","EPHEMERIS_TYPE":"0","MEAN_MOTION_DOT":"-0.00073423","SITE":"AFWTR","SEMIMAJOR_AXIS":"6940.974","RA_OF_ASC_NODE":"50.4669","DECAY_DATE":null,"ARG_OF_PERICENTER":"42.4406","EPOCH":"2022-10-17T22:00:00.999936","INCLINATION":"97.6554","ECCENTRICITY":"0.00021530","ELEMENT_SET_NO":"999","TLE_LINE1":"1 53506U 22099AT  22290.91667824 -.00073423  00000-0 -57627-2 0  9999","COUNTRY_CODE":"US","BSTAR":"-0.00576270000000","CLASSIFICATION_TYPE":"U","OBJECT_TYPE":"PAYLOAD","REV_AT_EPOCH":"130","OBJECT_NAME":"STARLINK-4437"}];
